ONEWEB-0331             
1 49198U 21083N   24265.50379668  .00000086  00000+0  18562-3 0  9996
2 49198  87.9058 101.5908 0001758  75.5824 284.5503 13.18686859146492
ONEWEB-0333             
1 49199U 21083P   24265.49525980  .00000406  00000+0  10765-2 0  9997
2 49199  87.8856  86.3478 0001688  92.4929 267.6394 13.13468162147723
ONEWEB-0334             
1 49200U 21083Q   24265.40464265  .00000132  00000+0  29155-3 0  9999
2 49200  87.9240  40.5358 0001982 129.7075 230.4233 13.20769777153132
ONEWEB-0335             
1 49201U 21083R   24265.49051085  .00000338  00000+0  88972-3 0  9991
2 49201  87.8856  86.3377 0001836  83.6819 276.4519 13.13469735147735
ONEWEB-0336             
1 49202U 21083S   24265.46035882 -.00000237  00000+0 -68354-3 0  9998
2 49202  87.8855  86.3388 0001531  90.7052 269.4252 13.13470087147724
ONEWEB-0337             
1 49203U 21083T   24265.46973183 -.00000172  00000+0 -50681-3 0  9996
2 49203  87.8855  86.3352 0001752  85.0898 275.0431 13.13469422147729
ONEWEB-0338             
1 49204U 21083U   24265.41175266  .00000115  00000+0  24997-3 0  9994
2 49204  87.9245  40.5234 0002012 106.5452 253.5903 13.20772508153159
ONEWEB-0339             
1 49205U 21083V   24265.48096945 -.00000674  00000+0 -18820-2 0  9997
2 49205  87.8863  86.3262 0001581 106.6894 253.4409 13.13470222147709
